NORAD_CAT_ID,OBJECT_NAME,OBJECT_TYPE,EPOCH,MEAN_MOTION,ECCENTRICITY,INCLINATION,RA_OF_ASC_NODE,ARG_OF_PERICENTER,MEAN_ANOMALY,BSTAR,MEAN_MOTION_DOT,MEAN_MOTION_DDOT,TLE_LINE0,TLE_LINE1,TLE_LINE2,SEMIMAJOR_AXIS,PERIOD,APOGEE,PERIGEE,DECAYED
53969.0,STARLINK-4468,PAYLOAD,2023-10-14 03:37:29,15.08876273,0.0001447,53.2171,203.5435,89.8033,270.3125,0.0018453,0.00029231,0.0,0 STARLINK-4468,1 53969U 22125F   23287.15103305  .00029231  00000-0  18453-2 0  9994,2 53969  53.2171 203.5435 0001447  89.8033 270.3125 15.08876273 56910,6917.77,95.435,540.636,538.634,0.0
53969.0,STARLINK-4468,PAYLOAD,2023-10-14 11:34:25,15.08846943,0.0002352,53.2169,202.0566,78.3686,281.757,0.00089854,0.00014044,0.0,0 STARLINK-4468,1 53969U 22125F   23287.48224035  .00014044  00000-0  89854-3 0  9994,2 53969  53.2169 202.0566 0002352  78.3686 281.7570 15.08846943 56897,6917.859,95.437,541.351,538.097,0.0
53969.0,STARLINK-4468,PAYLOAD,2023-10-14 17:55:58,15.08848092,0.0002532,53.2175,200.8704,79.9661,280.1617,0.0010485,0.00016442,0.0,0 STARLINK-4468,1 53969U 22125F   23287.74720039  .00016442  00000-0  10485-2 0  9995,2 53969  53.2175 200.8704 0002532  79.9661 280.1617 15.08848092 57000,6917.856,95.437,541.472,537.969,0.0
53969.0,STARLINK-4468,PAYLOAD,2023-10-15 00:17:30,15.08837032,0.0001485,53.2168,199.6779,83.7889,276.3273,0.0012551,0.00019742,0.0,0 STARLINK-4468,1 53969U 22125F   23288.01216070  .00019742  00000-0  12551-2 0  9993,2 53969  53.2168 199.6779 0001485  83.7889 276.3273 15.08837032 57041,6917.889,95.438,540.782,538.727,0.0
53969.0,STARLINK-4468,PAYLOAD,2023-10-15 11:25:13,15.08832772,0.0001745,53.2165,197.5972,70.0475,290.0705,0.00074443,0.00011577,0.0,0 STARLINK-4468,1 53969U 22125F   23288.47584663  .00011577  00000-0  74443-3 0  9996,2 53969  53.2165 197.5972 0001745  70.0475 290.0705 15.08832772 57048,6917.902,95.438,540.975,538.56,0.0
53969.0,STARLINK-4468,PAYLOAD,2023-10-15 17:46:45,15.08831601,0.0001696,53.2152,196.4063,77.4973,282.6209,0.00049514,7.599e-05,0.0,0 STARLINK-4468,1 53969U 22125F   23288.74080879  .00007599  00000-0  49514-3 0  9996,2 53969  53.2152 196.4063 0001696  77.4973 282.6209 15.08831601 57150,6917.906,95.438,540.944,538.598,0.0
53969.0,STARLINK-4468,PAYLOAD,2023-10-16 11:16:00,15.0884571,0.0001533,53.2156,193.1352,79.1717,280.9447,0.00055764,8.599e-05,0.0,0 STARLINK-4468,1 53969U 22125F   23289.46944782  .00008599  00000-0  55764-3 0  9993,2 53969  53.2156 193.1352 0001533  79.1717 280.9447 15.08845710 57199,6917.863,95.437,540.788,538.667,0.0
53969.0,STARLINK-4468,PAYLOAD,2023-10-17 11:06:47,15.08853898,0.0002203,53.2167,188.677,76.6414,283.4824,0.00045799,7.011e-05,0.0,0 STARLINK-4468,1 53969U 22125F   23290.46304638  .00007011  00000-0  45799-3 0  9990,2 53969  53.2167 188.6770 0002203  76.6414 283.4824 15.08853898 57345,6917.838,95.437,541.227,538.179,0.0
53969.0,STARLINK-4468,PAYLOAD,2023-10-17 23:49:51,15.08843639,0.0001408,53.2177,186.2963,83.4862,276.6291,5.9163e-05,6.54e-06,0.0,0 STARLINK-4468,1 53969U 22125F   23290.99296296  .00000654  00000-0  59163-4 0  9995,2 53969  53.2177 186.2963 0001408  83.4862 276.6291 15.08843639 57493,6917.869,95.437,540.708,538.76,0.0
53969.0,STARLINK-4468,PAYLOAD,2023-10-18 20:29:52,15.08838922,0.0001249,53.2157,182.4319,72.5147,287.5982,1.9369e-05,2e-07,0.0,0 STARLINK-4468,1 53969U 22125F   23291.85408559  .00000020  00000-0  19369-4 0  9999,2 53969  53.2157 182.4319 0001249  72.5147 287.5982 15.08838922 57556,6917.884,95.438,540.613,538.885,0.0
53969.0,STARLINK-4468,PAYLOAD,2023-10-18 23:40:39,15.08844038,0.0001314,53.2165,181.8363,78.5993,281.5146,7.9383e-05,9.76e-06,0.0,0 STARLINK-4468,1 53969U 22125F   23291.98656470  .00000976  00000-0  79383-4 0  9992,2 53969  53.2165 181.8363 0001314  78.5993 281.5146 15.08844038 57578,6917.868,95.437,540.642,538.824,0.0
53969.0,STARLINK-4468,PAYLOAD,2023-10-19 17:09:52,15.0886912,0.0002191,53.2176,178.5631,79.7799,280.3441,-0.00048864,-8.063e-05,0.0,0 STARLINK-4468,1 53969U 22125F   23292.71518973 -.00008063  00000-0 -48864-3 0  9995,2 53969  53.2176 178.5631 0002191  79.7799 280.3441 15.08869120 57756,6917.791,95.436,541.172,538.141,0.0
53969.0,STARLINK-4468,PAYLOAD,2023-10-19 23:31:25,15.08859362,0.0001222,53.2158,177.3765,77.847,282.2659,0.00041844,6.381e-05,0.0,0 STARLINK-4468,1 53969U 22125F   23292.98015360  .00006381  00000-0  41844-3 0  9996,2 53969  53.2158 177.3765 0001222  77.8470 282.2659 15.08859362 57793,6917.821,95.436,540.532,538.841,0.0
53969.0,STARLINK-4468,PAYLOAD,2023-10-20 18:36:04,15.08832023,0.0001162,53.217,173.8073,74.4694,285.6426,-7.8315e-05,-1.534e-05,0.0,0 STARLINK-4468,1 53969U 22125F   23293.77504835 -.00001534  00000-0 -78315-4 0  9995,2 53969  53.2170 173.8073 0001162  74.4694 285.6426 15.08832023 57912,6917.905,95.438,540.574,538.966,0.0
53969.0,STARLINK-4468,PAYLOAD,2023-10-20 21:46:50,15.08823362,0.0001335,53.2166,173.212,82.6495,277.4649,-0.00021704,-3.739e-05,0.0,0 STARLINK-4468,1 53969U 22125F   23293.90753321 -.00003739  00000-0 -21704-3 0  9994,2 53969  53.2166 173.2120 0001335  82.6495 277.4649 15.08823362 57862,6917.931,95.439,540.72,538.873,0.0
53969.0,STARLINK-4468,PAYLOAD,2023-10-20 23:22:14,15.08823808,0.0001358,53.2165,172.9148,83.3714,276.7433,-0.00020284,-3.513e-05,0.0,0 STARLINK-4468,1 53969U 22125F   23293.97377365 -.00003513  00000-0 -20284-3 0  9993,2 53969  53.2165 172.9148 0001358  83.3714 276.7433 15.08823808 57941,6917.93,95.439,540.734,538.855,0.0
53969.0,STARLINK-4468,PAYLOAD,2023-10-21 08:54:32,15.08831924,0.0001369,53.2166,171.1307,86.0031,274.1117,-4.9471e-05,-1.075e-05,0.0,0 STARLINK-4468,1 53969U 22125F   23294.37121219 -.00001075  00000-0 -49471-4 0  9994,2 53969  53.2166 171.1307 0001369  86.0031 274.1117 15.08831924 58001,6917.905,95.438,540.717,538.823,0.0
53969.0,STARLINK-4468,PAYLOAD,2023-10-21 21:37:37,15.08849673,0.0001416,53.2165,168.7514,88.1987,271.9167,0.00032977,4.966e-05,0.0,0 STARLINK-4468,1 53969U 22125F   23294.90112589  .00004966  00000-0  32977-3 0  9995,2 53969  53.2165 168.7514 0001416  88.1987 271.9167 15.08849673 58019,6917.851,95.437,540.695,538.736,0.0
53969.0,STARLINK-4468,PAYLOAD,2023-10-21 23:13:00,15.08850715,0.0001522,53.2163,168.4538,89.0349,271.0818,0.00096517,0.00015111,0.0,0 STARLINK-4468,1 53969U 22125F   23294.96737027  .00015111  00000-0  96517-3 0  9995,2 53969  53.2163 168.4538 0001522  89.0349 271.0818 15.08850715 58091,6917.848,95.437,540.766,538.66,0.0
53969.0,STARLINK-4468,PAYLOAD,2023-10-22 18:17:39,15.08841618,0.0002058,53.2163,164.8852,67.2448,292.8762,0.00035566,5.377e-05,0.0,0 STARLINK-4468,1 53969U 22125F   23295.76225695  .00005377  00000-0  35566-3 0  9997,2 53969  53.2163 164.8852 0002058  67.2448 292.8762 15.08841618 58218,6917.875,95.437,541.164,538.317,0.0
53969.0,STARLINK-4468,PAYLOAD,2023-10-22 21:28:24,15.08843577,0.0001516,53.2166,164.2908,131.1007,229.0116,0.0011205,0.00017591,0.0,0 STARLINK-4468,1 53969U 22125F   23295.89473043  .00017591  00000-0  11205-2 0  9997,2 53969  53.2166 164.2908 0001516 131.1007 229.0116 15.08843577 58162,6917.869,95.437,540.783,538.686,0.0
53969.0,STARLINK-4468,PAYLOAD,2023-10-23 21:19:12,15.0885235,0.000155,53.2162,159.8316,82.5948,277.522,0.0014834,0.00023407,0.0,0 STARLINK-4468,1 53969U 22125F   23296.88833604  .00023407  00000-0  14834-2 0  9994,2 53969  53.2162 159.8316 0001550  82.5948 277.5220 15.08852350 58312,6917.843,95.437,540.78,538.635,0.0
53969.0,STARLINK-4468,PAYLOAD,2023-10-24 08:26:53,15.08855353,0.0001717,53.2171,157.7494,89.4853,270.6336,0.0006901,0.00010717,0.0,0 STARLINK-4468,1 53969U 22125F   23297.35201277  .00010717  00000-0  69010-3 0  9999,2 53969  53.2171 157.7494 0001717  89.4853 270.6336 15.08855353 58455,6917.833,95.437,540.886,538.511,0.0
53969.0,STARLINK-4468,PAYLOAD,2023-10-24 14:48:26,15.08851458,0.0001732,53.2173,156.56,93.0182,267.1008,0.00039181,5.955e-05,0.0,0 STARLINK-4468,1 53969U 22125F   23297.61697178  .00005955  00000-0  39181-3 0  9991,2 53969  53.2173 156.5600 0001732  93.0182 267.1008 15.08851458 58422,6917.845,95.437,540.909,538.512,0.0
53969.0,STARLINK-4468,PAYLOAD,2023-10-25 00:20:44,15.08857999,0.000163,53.217,154.7759,93.8774,266.2404,0.00070223,0.00010911,0.0,0 STARLINK-4468,1 53969U 22125F   23298.01440872  .00010911  00000-0  70223-3 0  9993,2 53969  53.2170 154.7759 0001630  93.8774 266.2404 15.08857999 58556,6917.825,95.436,540.818,538.563,0.0
53969.0,STARLINK-4468,PAYLOAD,2023-10-26 00:11:32,15.08845298,0.0001688,53.2162,150.3152,92.4261,267.6924,0.00020037,2.903e-05,0.0,0 STARLINK-4468,1 53969U 22125F   23299.00800981  .00002903  00000-0  20037-3 0  9994,2 53969  53.2162 150.3152 0001688  92.4261 267.6924 15.08845298 58703,6917.864,95.437,540.897,538.561,0.0
53969.0,STARLINK-4468,PAYLOAD,2023-10-26 19:16:09,15.08838518,0.0001622,53.2158,146.746,93.9141,266.2036,3.468e-05,2.64e-06,0.0,0 STARLINK-4468,1 53969U 22125F   23299.80289313  .00000264  00000-0  34680-4 0  9990,2 53969  53.2158 146.7460 0001622  93.9141 266.2036 15.08838518 58829,6917.885,95.438,540.872,538.628,0.0
53969.0,STARLINK-4468,PAYLOAD,2023-10-26 22:26:56,15.08841975,0.0001609,53.2169,146.1508,91.1727,268.945,4.3575e-05,4.06e-06,0.0,0 STARLINK-4468,1 53969U 22125F   23299.93537076  .00000406  00000-0  43575-4 0  9997,2 53969  53.2169 146.1508 0001609  91.1727 268.9450 15.08841975 58777,6917.874,95.437,540.852,538.626,0.0
53969.0,STARLINK-4468,PAYLOAD,2023-10-27 14:20:47,15.08841572,0.0001574,53.2167,143.18,92.107,268.0102,0.00010155,1.329e-05,0.0,0 STARLINK-4468,1 53969U 22125F   23300.59777186  .00001329  00000-0  10155-3 0  9992,2 53969  53.2167 143.1800 0001574  92.1070 268.0102 15.08841572 58879,6917.876,95.437,540.829,538.652,0.0
53969.0,STARLINK-4468,PAYLOAD,2023-10-27 20:42:19,15.08844334,0.0001524,53.2167,141.9908,92.0028,268.1139,0.00011325,1.515e-05,0.0,0 STARLINK-4468,1 53969U 22125F   23300.86273031  .00001515  00000-0  11325-3 0  9999,2 53969  53.2167 141.9908 0001524  92.0028 268.1139 15.08844334 58983,6917.867,95.437,540.786,538.678,0.0
